[
  {
    "COMMENT": "GENERATED VIA SPACETRACK.ORG API",
    "ORIGINATOR": "18 SPCS",
    "NORAD_CAT_ID": "48621",
    "OBJECT_NAME": "HAIYANG 2D",
    "OBJECT_TYPE": "PAYLOAD",
    "CLASSIFICATION_TYPE": "U",
    "INTLDES": "21043A",
    "EPOCH": "2023-08-01 03:01:43",
    "EPOCH_MICROSECONDS": "542624",
    "MEAN_MOTION": "13.833729",
    "ECCENTRICITY": "0.0007609",
    "INCLINATION": "65.9978",
    "RA_OF_ASC_NODE": "41.4778",
    "ARG_OF_PERICENTER": "262.8965",
    "MEAN_ANOMALY": "97.1239",
    "EPHEMERIS_TYPE": "0",
    "ELEMENT_SET_NO": "999",
    "REV_AT_EPOCH": "11120",
    "BSTAR": "0.000048254",
    "MEAN_MOTION_DOT": "-0.00000028",
    "MEAN_MOTION_DDOT": "0",
    "FILE": "3968642",
    "TLE_LINE0": "0 HAIYANG 2D",
    "TLE_LINE1": "1 48621U 21043A   23213.12619841 -.00000028  00000-0  48254-4 0  9992",
    "TLE_LINE2": "2 48621  65.9978  41.4778 0007609 262.8965  97.1239 13.83372900111200",
    "OBJECT_ID": "2021-043A",
    "OBJECT_NUMBER": "48621",
    "SEMIMAJOR_AXIS": "7330.085",
    "PERIOD": "104.093",
    "APOGEE": "957.527",
    "PERIGEE": "946.372",
    "DECAYED": "0"
  },
  {
    "COMMENT": "GENERATED VIA SPACETRACK.ORG API",
    "ORIGINATOR": "18 SPCS",
    "NORAD_CAT_ID": "48621",
    "OBJECT_NAME": "HAIYANG 2D",
    "OBJECT_TYPE": "PAYLOAD",
    "CLASSIFICATION_TYPE": "U",
    "INTLDES": "21043A",
    "EPOCH": "2023-08-01 20:22:46",
    "EPOCH_MICROSECONDS": "269696",
    "MEAN_MOTION": "13.83372964",
    "ECCENTRICITY": "0.0007602",
    "INCLINATION": "65.9979",
    "RA_OF_ASC_NODE": "39.6778",
    "ARG_OF_PERICENTER": "262.9374",
    "MEAN_ANOMALY": "97.083",
    "EPHEMERIS_TYPE": "0",
    "ELEMENT_SET_NO": "999",
    "REV_AT_EPOCH": "11130",
    "BSTAR": "0.000047407",
    "MEAN_MOTION_DOT": "-0.00000029",
    "MEAN_MOTION_DDOT": "0",
    "FILE": "3969118",
    "TLE_LINE0": "0 HAIYANG 2D",
    "TLE_LINE1": "1 48621U 21043A   23213.84914664 -.00000029  00000-0  47407-4 0  9992",
    "TLE_LINE2": "2 48621  65.9979  39.6778 0007602 262.9374  97.0830 13.83372964111305",
    "OBJECT_ID": "2021-043A",
    "OBJECT_NUMBER": "48621",
    "SEMIMAJOR_AXIS": "7330.085",
    "PERIOD": "104.093",
    "APOGEE": "957.522",
    "PERIGEE": "946.377",
    "DECAYED": "0"
  },
  {
    "COMMENT": "GENERATED VIA SPACETRACK.ORG API",
    "ORIGINATOR": "18 SPCS",
    "NORAD_CAT_ID": "48621",
    "OBJECT_NAME": "HAIYANG 2D",
    "OBJECT_TYPE": "PAYLOAD",
    "CLASSIFICATION_TYPE": "U",
    "INTLDES": "21043A",
    "EPOCH": "2023-08-02 03:19:11",
    "EPOCH_MICROSECONDS": "357760",
    "MEAN_MOTION": "13.83373018",
    "ECCENTRICITY": "0.00076",
    "INCLINATION": "65.9979",
    "RA_OF_ASC_NODE": "38.9578",
    "ARG_OF_PERICENTER": "262.9663",
    "MEAN_ANOMALY": "97.0541",
    "EPHEMERIS_TYPE": "0",
    "ELEMENT_SET_NO": "999",
    "REV_AT_EPOCH": "11134",
    "BSTAR": "0.000049407",
    "MEAN_MOTION_DOT": "-0.00000027",
    "MEAN_MOTION_DDOT": "0",
    "FILE": "3969412",
    "TLE_LINE0": "0 HAIYANG 2D",
    "TLE_LINE1": "1 48621U 21043A   23214.13832590 -.00000027  00000-0  49407-4 0  9992",
    "TLE_LINE2": "2 48621  65.9979  38.9578 0007600 262.9663  97.0541 13.83373018111348",
    "OBJECT_ID": "2021-043A",
    "OBJECT_NUMBER": "48621",
    "SEMIMAJOR_AXIS": "7330.084",
    "PERIOD": "104.093",
    "APOGEE": "957.520",
    "PERIGEE": "946.379",
    "DECAYED": "0"
  },
  {
    "COMMENT": "GENERATED VIA SPACETRACK.ORG API",
    "ORIGINATOR": "18 SPCS",
    "NORAD_CAT_ID": "48621",
    "OBJECT_NAME": "HAIYANG 2D",
    "OBJECT_TYPE": "PAYLOAD",
    "CLASSIFICATION_TYPE": "U",
    "INTLDES": "21043A",
    "EPOCH": "2023-08-02 10:15:36",
    "EPOCH_MICROSECONDS": "451008",
    "MEAN_MOTION": "13.8337302",
    "ECCENTRICITY": "0.0007591",
    "INCLINATION": "65.9979",
    "RA_OF_ASC_NODE": "38.2378",
    "ARG_OF_PERICENTER": "263.0155",
    "MEAN_ANOMALY": "97.0049",
    "EPHEMERIS_TYPE": "0",
    "ELEMENT_SET_NO": "999",
    "REV_AT_EPOCH": "11138",
    "BSTAR": "0.000045386",
    "MEAN_MOTION_DOT": "-0.00000031",
    "MEAN_MOTION_DDOT": "0",
    "FILE": "3969705",
    "TLE_LINE0": "0 HAIYANG 2D",
    "TLE_LINE1": "1 48621U 21043A   23214.42750522 -.00000031  00000-0  45386-4 0  9995",
    "TLE_LINE2": "2 48621  65.9979  38.2378 0007591 263.0155  97.0049 13.83373020111386",
    "OBJECT_ID": "2021-043A",
    "OBJECT_NUMBER": "48621",
    "SEMIMAJOR_AXIS": "7330.084",
    "PERIOD": "104.093",
    "APOGEE": "957.514",
    "PERIGEE": "946.385",
    "DECAYED": "0"
  },
  {
    "COMMENT": "GENERATED VIA SPACETRACK.ORG API",
    "ORIGINATOR": "18 SPCS",
    "NORAD_CAT_ID": "48621",
    "OBJECT_NAME": "HAIYANG 2D",
    "OBJECT_TYPE": "PAYLOAD",
    "CLASSIFICATION_TYPE": "U",
    "INTLDES": "21043A",
    "EPOCH": "2023-08-02 17:12:01",
    "EPOCH_MICROSECONDS": "536480",
    "MEAN_MOTION": "13.83373055",
    "ECCENTRICITY": "0.0007592",
    "INCLINATION": "65.998",
    "RA_OF_ASC_NODE": "37.5179",
    "ARG_OF_PERICENTER": "262.9995",
    "MEAN_ANOMALY": "97.021",
    "EPHEMERIS_TYPE": "0",
    "ELEMENT_SET_NO": "999",
    "REV_AT_EPOCH": "11142",
    "BSTAR": "0.000044363",
    "MEAN_MOTION_DOT": "-0.00000032",
    "MEAN_MOTION_DDOT": "0",
    "FILE": "3970017",
    "TLE_LINE0": "0 HAIYANG 2D",
    "TLE_LINE1": "1 48621U 21043A   23214.71668445 -.00000032  00000-0  44363-4 0  9994",
    "TLE_LINE2": "2 48621  65.9980  37.5179 0007592 262.9995  97.0210 13.83373055111423",
    "OBJECT_ID": "2021-043A",
    "OBJECT_NUMBER": "48621",
    "SEMIMAJOR_AXIS": "7330.084",
    "PERIOD": "104.093",
    "APOGEE": "957.514",
    "PERIGEE": "946.384",
    "DECAYED": "0"
  },
  {
    "COMMENT": "GENERATED VIA SPACETRACK.ORG API",
    "ORIGINATOR": "18 SPCS",
    "NORAD_CAT_ID": "48621",
    "OBJECT_NAME": "HAIYANG 2D",
    "OBJECT_TYPE": "PAYLOAD",
    "CLASSIFICATION_TYPE": "U",
    "INTLDES": "21043A",
    "EPOCH": "2023-08-03 01:52:32",
    "EPOCH_MICROSECONDS": "896128",
    "MEAN_MOTION": "13.83373124",
    "ECCENTRICITY": "0.0007583",
    "INCLINATION": "65.998",
    "RA_OF_ASC_NODE": "36.6178",
    "ARG_OF_PERICENTER": "263.0881",
    "MEAN_ANOMALY": "96.9325",
    "EPHEMERIS_TYPE": "0",
    "ELEMENT_SET_NO": "999",
    "REV_AT_EPOCH": "11147",
    "BSTAR": "0.000048096",
    "MEAN_MOTION_DOT": "-0.00000028",
    "MEAN_MOTION_DDOT": "0",
    "FILE": "3970297",
    "TLE_LINE0": "0 HAIYANG 2D",
    "TLE_LINE1": "1 48621U 21043A   23215.07815852 -.00000028  00000-0  48096-4 0  9992",
    "TLE_LINE2": "2 48621  65.9980  36.6178 0007583 263.0881  96.9325 13.83373124111475",
    "OBJECT_ID": "2021-043A",
    "OBJECT_NUMBER": "48621",
    "SEMIMAJOR_AXIS": "7330.084",
    "PERIOD": "104.093",
    "APOGEE": "957.507",
    "PERIGEE": "946.391",
    "DECAYED": "0"
  },
  {
    "COMMENT": "GENERATED VIA SPACETRACK.ORG API",
    "ORIGINATOR": "18 SPCS",
    "NORAD_CAT_ID": "48621",
    "OBJECT_NAME": "HAIYANG 2D",
    "OBJECT_TYPE": "PAYLOAD",
    "CLASSIFICATION_TYPE": "U",
    "INTLDES": "21043A",
    "EPOCH": "2023-08-03 10:33:04",
    "EPOCH_MICROSECONDS": "255776",
    "MEAN_MOTION": "13.83373162",
    "ECCENTRICITY": "0.0007581",
    "INCLINATION": "65.998",
    "RA_OF_ASC_NODE": "35.7179",
    "ARG_OF_PERICENTER": "263.0671",
    "MEAN_ANOMALY": "96.9535",
    "EPHEMERIS_TYPE": "0",
    "ELEMENT_SET_NO": "999",
    "REV_AT_EPOCH": "11152",
    "BSTAR": "0.000043498",
    "MEAN_MOTION_DOT": "-0.00000033",
    "MEAN_MOTION_DDOT": "0",
    "FILE": "3970594",
    "TLE_LINE0": "0 HAIYANG 2D",
    "TLE_LINE1": "1 48621U 21043A   23215.43963259 -.00000033  00000-0  43498-4 0  9994",
    "TLE_LINE2": "2 48621  65.9980  35.7179 0007581 263.0671  96.9535 13.83373162111522",
    "OBJECT_ID": "2021-043A",
    "OBJECT_NUMBER": "48621",
    "SEMIMAJOR_AXIS": "7330.084",
    "PERIOD": "104.093",
    "APOGEE": "957.506",
    "PERIGEE": "946.392",
    "DECAYED": "0"
  },
  {
    "COMMENT": "GENERATED VIA SPACETRACK.ORG API",
    "ORIGINATOR": "18 SPCS",
    "NORAD_CAT_ID": "48621",
    "OBJECT_NAME": "HAIYANG 2D",
    "OBJECT_TYPE": "PAYLOAD",
    "CLASSIFICATION_TYPE": "U",
    "INTLDES": "21043A",
    "EPOCH": "2023-08-03 19:13:35",
    "EPOCH_MICROSECONDS": "610240",
    "MEAN_MOTION": "13.83373212",
    "ECCENTRICITY": "0.0007584",
    "INCLINATION": "65.998",
    "RA_OF_ASC_NODE": "34.8179",
    "ARG_OF_PERICENTER": "263.0343",
    "MEAN_ANOMALY": "96.9863",
    "EPHEMERIS_TYPE": "0",
    "ELEMENT_SET_NO": "999",
    "REV_AT_EPOCH": "11157",
    "BSTAR": "0.000045809",
    "MEAN_MOTION_DOT": "-0.00000031",
    "MEAN_MOTION_DDOT": "0",
    "FILE": "3970900",
    "TLE_LINE0": "0 HAIYANG 2D",
    "TLE_LINE1": "1 48621U 21043A   23215.80110660 -.00000031  00000-0  45809-4 0  9991",
    "TLE_LINE2": "2 48621  65.9980  34.8179 0007584 263.0343  96.9863 13.83373212111576",
    "OBJECT_ID": "2021-043A",
    "OBJECT_NUMBER": "48621",
    "SEMIMAJOR_AXIS": "7330.084",
    "PERIOD": "104.093",
    "APOGEE": "957.508",
    "PERIGEE": "946.390",
    "DECAYED": "0"
  }
]